S-NET C                 
1 43189U 18014K   26068.68738116  .00007592  00000+0  40276-3 0  9995
2 43189  97.5461 334.3679 0010366   1.8746 358.2523 15.15593112442232
LEMUR-2-ESPERANZA       
1 63352U 25061B   26068.87489603  .00006090  00000+0  34973-3 0  9993
2 63352  97.5568  45.1407 0016949 244.8770 115.0702 15.12770807 52576
